KUIPER-00041            
1 64502U 25134C   25333.26733891  .00005381  00000+0  73366-3 0  9991
2 64502  51.8998 329.6611 0013605 295.2066  64.7485 14.79927007 25021
KUIPER-00042            
1 64503U 25134D   25333.67631961  .00009728  00000+0  13018-2 0  9998
2 64503  51.9002 323.8562 0011786 303.8376  56.1464 14.79942169 25149
KUIPER-00043            
1 64504U 25134E   25333.68442558  .00005272  00000+0  71917-3 0  9995
2 64504  51.9027 316.2628 0003469 313.3825  46.6848 14.79986722 25255
KUIPER-00044            
1 64505U 25134F   25333.26574827  .00005024  00000+0  68678-3 0  9990
2 64505  51.9002 330.6695 0011013 300.8145  59.1733 14.79959416 25019
KUIPER-00046            
1 64506U 25134G   25333.67143632  .00005423  00000+0  73218-3 0  9991
2 64506  51.9000 325.3041 0012138 313.6385  46.3570 14.80344339 25124
KUIPER-00047            
1 64507U 25134H   25333.60827339  .00004699  00000+0  60253-3 0  9997
2 64507  51.8985 297.4857 0008134 327.1739  32.8718 14.82817418 25505
KUIPER-00048            
1 64508U 25134J   25333.16473525  .00005650  00000+0  76834-3 0  9993
2 64508  51.8999 300.1064 0002841  82.7127 277.4158 14.80000263 25434
KUIPER-00049            
1 64509U 25134K   25333.21701815 -.00001754  00000+0 -20089-3 0  9990
2 64509  51.9001 313.3426 0002437 335.4280  24.6566 14.79959488 25252
