{
  "type": "FeatureCollection",
  "features": [
    {
      "type": "Feature",
      "properties": {
        "OBJECT_NAME": "KUIPER-00041",
        "OBJECT_ID": "2025-134C",
        "EPOCH": "2025-11-29T06:24:58.081824",
        "MEAN_MOTION": 14.79927007,
        "ECCENTRICITY": 0.00136057,
        "INCLINATION": 51.8998,
        "RA_OF_ASC_NODE": 329.6611,
        "ARG_OF_PERICENTER": 295.2066,
        "MEAN_ANOMALY": 64.7485,
        "EPHEMERIS_TYPE": 0,
        "CLASSIFICATION_TYPE": "U",
        "NORAD_CAT_ID": 64502,
        "ELEMENT_SET_NO": 999,
        "REV_AT_EPOCH": 2502,
        "BSTAR": 0.00073365622,
        "MEAN_MOTION_DOT": 5.381e-05,
        "MEAN_MOTION_DDOT": 0,
        "norad_id": 64502,
        "name": "KUIPER-00041",
        "group": "active",
        "longitude_deg": NaN,
        "latitude_deg": NaN,
        "alt_km": NaN,
        "orbit_class": "HEO",
        "timestamp": "2025-11-30T05:40:21.693961+00:00"
      },
      "geometry": {
        "type": "Point",
        "coordinates": [
          NaN,
          NaN
        ]
      }
    },
    {
      "type": "Feature",
      "properties": {
        "OBJECT_NAME": "KUIPER-00042",
        "OBJECT_ID": "2025-134D",
        "EPOCH": "2025-11-29T16:13:54.014304",
        "MEAN_MOTION": 14.79942169,
        "ECCENTRICITY": 0.0011786,
        "INCLINATION": 51.9002,
        "RA_OF_ASC_NODE": 323.8562,
        "ARG_OF_PERICENTER": 303.8376,
        "MEAN_ANOMALY": 56.1464,
        "EPHEMERIS_TYPE": 0,
        "CLASSIFICATION_TYPE": "U",
        "NORAD_CAT_ID": 64503,
        "ELEMENT_SET_NO": 999,
        "REV_AT_EPOCH": 2514,
        "BSTAR": 0.0013018,
        "MEAN_MOTION_DOT": 9.728e-05,
        "MEAN_MOTION_DDOT": 0,
        "norad_id": 64503,
        "name": "KUIPER-00042",
        "group": "active",
        "longitude_deg": NaN,
        "latitude_deg": NaN,
        "alt_km": NaN,
        "orbit_class": "HEO",
        "timestamp": "2025-11-30T05:40:21.693967+00:00"
      },
      "geometry": {
        "type": "Point",
        "coordinates": [
          NaN,
          NaN
        ]
      }
    },
    {
      "type": "Feature",
      "properties": {
        "OBJECT_NAME": "KUIPER-00043",
        "OBJECT_ID": "2025-134E",
        "EPOCH": "2025-11-29T16:25:34.370112",
        "MEAN_MOTION": 14.79986722,
        "ECCENTRICITY": 0.0003469,
        "INCLINATION": 51.9027,
        "RA_OF_ASC_NODE": 316.2628,
        "ARG_OF_PERICENTER": 313.3825,
        "MEAN_ANOMALY": 46.6848,
        "EPHEMERIS_TYPE": 0,
        "CLASSIFICATION_TYPE": "U",
        "NORAD_CAT_ID": 64504,
        "ELEMENT_SET_NO": 999,
        "REV_AT_EPOCH": 2525,
        "BSTAR": 0.00071917,
        "MEAN_MOTION_DOT": 5.272e-05,
        "MEAN_MOTION_DDOT": 0,
        "norad_id": 64504,
        "name": "KUIPER-00043",
        "group": "active",
        "longitude_deg": NaN,
        "latitude_deg": NaN,
        "alt_km": NaN,
        "orbit_class": "HEO",
        "timestamp": "2025-11-30T05:40:21.693975+00:00"
      },
      "geometry": {
        "type": "Point",
        "coordinates": [
          NaN,
          NaN
        ]
      }
    },
    {
      "type": "Feature",
      "properties": {
        "OBJECT_NAME": "KUIPER-00044",
        "OBJECT_ID": "2025-134F",
        "EPOCH": "2025-11-29T06:22:40.650528",
        "MEAN_MOTION": 14.79959416,
        "ECCENTRICITY": 0.00110136,
        "INCLINATION": 51.9002,
        "RA_OF_ASC_NODE": 330.6695,
        "ARG_OF_PERICENTER": 300.8145,
        "MEAN_ANOMALY": 59.1733,
        "EPHEMERIS_TYPE": 0,
        "CLASSIFICATION_TYPE": "U",
        "NORAD_CAT_ID": 64505,
        "ELEMENT_SET_NO": 999,
        "REV_AT_EPOCH": 2501,
        "BSTAR": 0.00068677932,
        "MEAN_MOTION_DOT": 5.024e-05,
        "MEAN_MOTION_DDOT": 0,
        "norad_id": 64505,
        "name": "KUIPER-00044",
        "group": "active",
        "longitude_deg": NaN,
        "latitude_deg": NaN,
        "alt_km": NaN,
        "orbit_class": "HEO",
        "timestamp": "2025-11-30T05:40:21.693981+00:00"
      },
      "geometry": {
        "type": "Point",
        "coordinates": [
          NaN,
          NaN
        ]
      }
    },
    {
      "type": "Feature",
      "properties": {
        "OBJECT_NAME": "KUIPER-00046",
        "OBJECT_ID": "2025-134G",
        "EPOCH": "2025-11-29T16:06:52.098048",
        "MEAN_MOTION": 14.80344339,
        "ECCENTRICITY": 0.0012138,
        "INCLINATION": 51.9,
        "RA_OF_ASC_NODE": 325.3041,
        "ARG_OF_PERICENTER": 313.6385,
        "MEAN_ANOMALY": 46.357,
        "EPHEMERIS_TYPE": 0,
        "CLASSIFICATION_TYPE": "U",
        "NORAD_CAT_ID": 64506,
        "ELEMENT_SET_NO": 999,
        "REV_AT_EPOCH": 2512,
        "BSTAR": 0.00073218,
        "MEAN_MOTION_DOT": 5.423e-05,
        "MEAN_MOTION_DDOT": 0,
        "norad_id": 64506,
        "name": "KUIPER-00046",
        "group": "active",
        "longitude_deg": NaN,
        "latitude_deg": NaN,
        "alt_km": NaN,
        "orbit_class": "HEO",
        "timestamp": "2025-11-30T05:40:21.693987+00:00"
      },
      "geometry": {
        "type": "Point",
        "coordinates": [
          NaN,
          NaN
        ]
      }
    },
    {
      "type": "Feature",
      "properties": {
        "OBJECT_NAME": "KUIPER-00047",
        "OBJECT_ID": "2025-134H",
        "EPOCH": "2025-11-29T14:35:54.820896",
        "MEAN_MOTION": 14.82817418,
        "ECCENTRICITY": 0.0008134,
        "INCLINATION": 51.8985,
        "RA_OF_ASC_NODE": 297.4857,
        "ARG_OF_PERICENTER": 327.1739,
        "MEAN_ANOMALY": 32.8718,
        "EPHEMERIS_TYPE": 0,
        "CLASSIFICATION_TYPE": "U",
        "NORAD_CAT_ID": 64507,
        "ELEMENT_SET_NO": 999,
        "REV_AT_EPOCH": 2550,
        "BSTAR": 0.00060253,
        "MEAN_MOTION_DOT": 4.699e-05,
        "MEAN_MOTION_DDOT": 0,
        "norad_id": 64507,
        "name": "KUIPER-00047",
        "group": "active",
        "longitude_deg": NaN,
        "latitude_deg": NaN,
        "alt_km": NaN,
        "orbit_class": "HEO",
        "timestamp": "2025-11-30T05:40:21.693993+00:00"
      },
      "geometry": {
        "type": "Point",
        "coordinates": [
          NaN,
          NaN
        ]
      }
    },
    {
      "type": "Feature",
      "properties": {
        "OBJECT_NAME": "KUIPER-00048",
        "OBJECT_ID": "2025-134J",
        "EPOCH": "2025-11-29T03:57:13.125600",
        "MEAN_MOTION": 14.80000263,
        "ECCENTRICITY": 0.00028415,
        "INCLINATION": 51.8999,
        "RA_OF_ASC_NODE": 300.1064,
        "ARG_OF_PERICENTER": 82.7127,
        "MEAN_ANOMALY": 277.4158,
        "EPHEMERIS_TYPE": 0,
        "CLASSIFICATION_TYPE": "U",
        "NORAD_CAT_ID": 64508,
        "ELEMENT_SET_NO": 999,
        "REV_AT_EPOCH": 2543,
        "BSTAR": 0.00076833562,
        "MEAN_MOTION_DOT": 5.65e-05,
        "MEAN_MOTION_DDOT": 0,
        "norad_id": 64508,
        "name": "KUIPER-00048",
        "group": "active",
        "longitude_deg": NaN,
        "latitude_deg": NaN,
        "alt_km": NaN,
        "orbit_class": "HEO",
        "timestamp": "2025-11-30T05:40:21.694001+00:00"
      },
      "geometry": {
        "type": "Point",
        "coordinates": [
          NaN,
          NaN
        ]
      }
    },
    {
      "type": "Feature",
      "properties": {
        "OBJECT_NAME": "KUIPER-00049",
        "OBJECT_ID": "2025-134K",
        "EPOCH": "2025-11-29T05:12:30.368160",
        "MEAN_MOTION": 14.79959488,
        "ECCENTRICITY": 0.00024374,
        "INCLINATION": 51.9001,
        "RA_OF_ASC_NODE": 313.3426,
        "ARG_OF_PERICENTER": 335.428,
        "MEAN_ANOMALY": 24.6566,
        "EPHEMERIS_TYPE": 0,
        "CLASSIFICATION_TYPE": "U",
        "NORAD_CAT_ID": 64509,
        "ELEMENT_SET_NO": 999,
        "REV_AT_EPOCH": 2525,
        "BSTAR": -0.00020088839,
        "MEAN_MOTION_DOT": -1.754e-05,
        "MEAN_MOTION_DDOT": 0,
        "norad_id": 64509,
        "name": "KUIPER-00049",
        "group": "active",
        "longitude_deg": NaN,
        "latitude_deg": NaN,
        "alt_km": NaN,
        "orbit_class": "HEO",
        "timestamp": "2025-11-30T05:40:21.694007+00:00"
      },
      "geometry": {
        "type": "Point",
        "coordinates": [
          NaN,
          NaN
        ]
      }
    }
  ]
}